COSMOS 1933             
1 18958U 88020A   25359.94379294  .00004324  00000+0  21596-3 0  9998
2 18958  82.5138 323.8312 0006407  92.9669 267.2298 15.17217075 39048
SL-3 R/B                
1 19046U 88032B   25360.23582435  .00005712  00000+0  27449-3 0  9992
2 19046  97.5098 338.8645 0027998 127.3914 232.9875 15.18874719 40954
SL-16 R/B               
1 19120U 88039B   25360.06461460 -.00000093  00000+0 -21231-4 0  9990
2 19120  71.0127 224.2248 0019548  93.4555 266.8807 14.19599578947932
COSMOS 1953             
1 19210U 88050A   25351.75027580  .00004793  00000+0  17925-3 0  9993
2 19210  82.5093 240.5536 0013540  56.0210 304.2313 15.26995692 25270
SL-8 R/B                
1 19257U 88053B   25360.11536682  .00000250  00000+0  89603-4 0  9992
2 19257  74.0467 248.0687 0018965  87.1511  63.7351 14.38867126966014
COSMOS 1975             
1 19573U 88093A   25360.02172453  .00008018  00000+0  30384-3 0  9990
2 19573  82.5194 191.5302 0013011  71.4263 288.8388 15.26655257  8160
SL-14 R/B               
1 19574U 88093B   25360.30649216  .00000601  00000+0  66589-4 0  9995
2 19574  82.5317 110.9364 0019236 281.7710 100.4023 14.85563661990143
SL-16 R/B               
1 19650U 88102B   25360.23240237  .00000064  00000+0  56448-4 0  9999
2 19650  71.0007 306.0530 0012256 128.7595 231.4625 14.16142472916492
INTERCOSMOS 24          
1 20261U 89080A   25359.93205925  .00000727  00000+0  20468-3 0  9993
2 20261  82.6054 152.3762 1189009 103.9306 269.6674 12.59460446657519
SL-14 R/B               
1 20262U 89080C   25360.10513613  .00000302  00000+0  87809-4 0  9993
2 20262  82.5914 220.4404 1230401 353.0467   5.4812 12.50423378650958
DELTA 1 R/B             
1 20323U 89089B   25360.15968661  .00000383  00000+0  10356-3 0  9993
2 20323  97.0742 214.2697 0069043 356.2424   3.8246 14.50582938885076
ARIANE 40 R/B           
1 20443U 90005H   25360.15161459  .00000277  00000+0  10168-3 0  9999
2 20443  98.3226  57.9495 0011151  69.4487 290.7897 14.39807981882225
